{"type": "FeatureCollection", "features": [{"type": "Feature", "properties": {"norad_id": 66549, "name": "SHIJIAN-28 (SJ-28)", "group": "last-30-days", "lat": -0.8217070955163583, "lon": 104.4427254626069, "alt_km": 35786.118431006165, "timestamp": "2025-12-25T16:53:13.369805+00:00", "meta": {"OBJECT_NAME": "SHIJIAN-28 (SJ-28)", "OBJECT_ID": "2025-277A", "EPOCH": "2025-12-24T22:54:51.916320", "MEAN_MOTION": 1.00265231, "ECCENTRICITY": 9.989e-05, "INCLINATION": 4.9886, "RA_OF_ASC_NODE": 274.7645, "ARG_OF_PERICENTER": 128.3669, "MEAN_ANOMALY": 151.0393, "EPHEMERIS_TYPE": 0, "CLASSIFICATION_TYPE": "U", "NORAD_CAT_ID": 66549, "ELEMENT_SET_NO": 999, "REV_AT_EPOCH": 40, "BSTAR": 0, "MEAN_MOTION_DOT": -3.37e-06, "MEAN_MOTION_DDOT": 0}, "tle": {"line1": "1 66549U 25277A   25358.95476755 -.00000337  00000+0  00000+0 0  9996", "line2": "2 66549   4.9886 274.7645 0000998 128.3669 151.0393  1.00265231   409"}}, "geometry": {"type": "Point", "coordinates": [104.4427254626069, -0.8217070955163583]}}, {"type": "Feature", "properties": {"norad_id": 66550, "name": "CZ-7A R/B", "group": "last-30-days", "lat": -13.489202454421786, "lon": 151.91574177558306, "alt_km": 1031.95801774744, "timestamp": "2025-12-25T16:53:13.369855+00:00", "meta": {"OBJECT_NAME": "CZ-7A R/B", "OBJECT_ID": "2025-277B", "EPOCH": "2025-12-23T05:53:12.433056", "MEAN_MOTION": 3.27661077, "ECCENTRICITY": 0.66094342, "INCLINATION": 14.3426, "RA_OF_ASC_NODE": 263.9223, "ARG_OF_PERICENTER": 200.4471, "MEAN_ANOMALY": 110.5172, "EPHEMERIS_TYPE": 0, "CLASSIFICATION_TYPE": "U", "NORAD_CAT_ID": 66550, "ELEMENT_SET_NO": 999, "REV_AT_EPOCH": 65, "BSTAR": 0.0068493476, "MEAN_MOTION_DOT": 0.10979967, "MEAN_MOTION_DDOT": 1.8894821e-05}, "tle": {"line1": "1 66550U 25277B   25357.24528279  .10979967  18895-4  68493-2 0  9991", "line2": "2 66550  14.3426 263.9223 6609434 200.4471 110.5172  3.27661077   658"}}, "geometry": {"type": "Point", "coordinates": [151.91574177558306, -13.489202454421786]}}, {"type": "Feature", "properties": {"norad_id": 66554, "name": "GLOBAL-33", "group": "last-30-days", "lat": -6.0534563815981235, "lon": -24.61638190006818, "alt_km": 474.14067710419476, "timestamp": "2025-12-25T16:53:13.369902+00:00", "meta": {"OBJECT_NAME": "GLOBAL-33", "OBJECT_ID": "2025-267A", "EPOCH": "2025-12-25T07:32:13.987392", "MEAN_MOTION": 15.31757691, "ECCENTRICITY": 0.00047499, "INCLINATION": 42.0212, "RA_OF_ASC_NODE": 344.3976, "ARG_OF_PERICENTER": 179.4809, "MEAN_ANOMALY": 180.6034, "EPHEMERIS_TYPE": 0, "CLASSIFICATION_TYPE": "U", "NORAD_CAT_ID": 66554, "ELEMENT_SET_NO": 999, "REV_AT_EPOCH": 533, "BSTAR": 0.00047768001, "MEAN_MOTION_DOT": 0.00014746, "MEAN_MOTION_DDOT": 0}, "tle": {"line1": "1 66554U 25267A   25359.31405078  .00014746  00000+0  47768-3 0  9996", "line2": "2 66554  42.0212 344.3976 0004749 179.4809 180.6034 15.31757691  5335"}}, "geometry": {"type": "Point", "coordinates": [-24.61638190006818, -6.0534563815981235]}}, {"type": "Feature", "properties": {"norad_id": 66557, "name": "STARLINK-35699", "group": "last-30-days", "lat": 4.460332963896629, "lon": -139.37105782334743, "alt_km": 451.3683819634607, "timestamp": "2025-12-25T16:53:13.369932+00:00", "meta": {"OBJECT_NAME": "STARLINK-35699", "OBJECT_ID": "2025-268A", "EPOCH": "2025-12-25T08:00:01.000224", "MEAN_MOTION": 15.39606454, "ECCENTRICITY": 8.345e-05, "INCLINATION": 43.0005, "RA_OF_ASC_NODE": 47.5588, "ARG_OF_PERICENTER": 283.0922, "MEAN_ANOMALY": 356.5921, "EPHEMERIS_TYPE": 0, "CLASSIFICATION_TYPE": "U", "NORAD_CAT_ID": 66557, "ELEMENT_SET_NO": 999, "REV_AT_EPOCH": 608, "BSTAR": -0.054354923, "MEAN_MOTION_DOT": -0.0195463, "MEAN_MOTION_DDOT": 0}, "tle": {"line1": "1 66557U 25268A   25359.33334491 -.01954630  00000+0 -54355-1 0  9998", "line2": "2 66557  43.0005  47.5588 0000834 283.0922 356.5921 15.39606454  6089"}}, "geometry": {"type": "Point", "coordinates": [-139.37105782334743, 4.460332963896629]}}, {"type": "Feature", "properties": {"norad_id": 66558, "name": "STARLINK-35695", "group": "last-30-days", "lat": -5.059025940473325, "lon": -129.1497684518186, "alt_km": 449.9560641888629, "timestamp": "2025-12-25T16:53:13.369951+00:00", "meta": {"OBJECT_NAME": "STARLINK-35695", "OBJECT_ID": "2025-268B", "EPOCH": "2025-12-25T08:00:01.000224", "MEAN_MOTION": 15.40463843, "ECCENTRICITY": 0.00011172, "INCLINATION": 42.9994, "RA_OF_ASC_NODE": 47.5296, "ARG_OF_PERICENTER": 266.5633, "MEAN_ANOMALY": 25.9924, "EPHEMERIS_TYPE": 0, "CLASSIFICATION_TYPE": "U", "NORAD_CAT_ID": 66558, "ELEMENT_SET_NO": 999, "REV_AT_EPOCH": 608, "BSTAR": -0.054556769, "MEAN_MOTION_DOT": -0.02011892, "MEAN_MOTION_DDOT": 0}, "tle": {"line1": "1 66558U 25268B   25359.33334491 -.02011892  00000+0 -54557-1 0  9998", "line2": "2 66558  42.9994  47.5296 0001117 266.5633  25.9924 15.40463843  6086"}}, "geometry": {"type": "Point", "coordinates": [-129.1497684518186, -5.059025940473325]}}, {"type": "Feature", "properties": {"norad_id": 66559, "name": "STARLINK-35419", "group": "last-30-days", "lat": -40.15684297198709, "lon": -69.86978605986546, "alt_km": 436.98640025157965, "timestamp": "2025-12-25T16:53:13.369963+00:00", "meta": {"OBJECT_NAME": "STARLINK-35419", "OBJECT_ID": "2025-268C", "EPOCH": "2025-12-25T08:00:01.000224", "MEAN_MOTION": 15.45628572, "ECCENTRICITY": 0.00011551, "INCLINATION": 43.0001, "RA_OF_ASC_NODE": 47.3898, "ARG_OF_PERICENTER": 267.4504, "MEAN_ANOMALY": 81.9339, "EPHEMERIS_TYPE": 0, "CLASSIFICATION_TYPE": "U", "NORAD_CAT_ID": 66559, "ELEMENT_SET_NO": 999, "REV_AT_EPOCH": 608, "BSTAR": -0.047768437, "MEAN_MOTION_DOT": -0.02090383, "MEAN_MOTION_DDOT": 0}, "tle": {"line1": "1 66559U 25268C   25359.33334491 -.02090383  00000+0 -47768-1 0  9997", "line2": "2 66559  43.0001  47.3898 0001155 267.4504  81.9339 15.45628572  6082"}}, "geometry": {"type": "Point", "coordinates": [-69.86978605986546, -40.15684297198709]}}, {"type": "Feature", "properties": {"norad_id": 66560, "name": "STARLINK-35411", "group": "last-30-days", "lat": -41.856692874084224, "lon": -60.7517954520139, "alt_km": 435.4432200253632, "timestamp": "2025-12-25T16:53:13.369975+00:00", "meta": {"OBJECT_NAME": "STARLINK-35411", "OBJECT_ID": "2025-268D", "EPOCH": "2025-12-25T08:00:01.000224", "MEAN_MOTION": 15.46146564, "ECCENTRICITY": 0.00011402, "INCLINATION": 43.0009, "RA_OF_ASC_NODE": 47.3742, "ARG_OF_PERICENTER": 272.443, "MEAN_ANOMALY": 83.3339, "EPHEMERIS_TYPE": 0, "CLASSIFICATION_TYPE": "U", "NORAD_CAT_ID": 66560, "ELEMENT_SET_NO": 999, "REV_AT_EPOCH": 608, "BSTAR": -0.046005675, "MEAN_MOTION_DOT": -0.02054309, "MEAN_MOTION_DDOT": 0}, "tle": {"line1": "1 66560U 25268D   25359.33334491 -.02054309  00000+0 -46006-1 0  9991", "line2": "2 66560  43.0009  47.3742 0001140 272.4430  83.3339 15.46146564  6081"}}, "geometry": {"type": "Point", "coordinates": [-60.7517954520139, -41.856692874084224]}}, {"type": "Feature", "properties": {"norad_id": 66561, "name": "STARLINK-35305", "group": "last-30-days", "lat": -42.599177303278914, "lon": -35.49160163657336, "alt_km": 430.4672073558504, "timestamp": "2025-12-25T16:53:13.369988+00:00", "meta": {"OBJECT_NAME": "STARLINK-35305", "OBJECT_ID": "2025-268E", "EPOCH": "2025-12-25T08:00:01.000224", "MEAN_MOTION": 15.47820357, "ECCENTRICITY": 0.00012736, "INCLINATION": 42.9999, "RA_OF_ASC_NODE": 47.3332, "ARG_OF_PERICENTER": 272.8285, "MEAN_ANOMALY": 99.4308, "EPHEMERIS_TYPE": 0, "CLASSIFICATION_TYPE": "U", "NORAD_CAT_ID": 66561, "ELEMENT_SET_NO": 999, "REV_AT_EPOCH": 608, "BSTAR": -0.043872805, "MEAN_MOTION_DOT": -0.02074851, "MEAN_MOTION_DDOT": 0}, "tle": {"line1": "1 66561U 25268E   25359.33334491 -.02074851  00000+0 -43873-1 0  9995", "line2": "2 66561  42.9999  47.3332 0001273 272.8285  99.4308 15.47820357  6086"}}, "geometry": {"type": "Point", "coordinates": [-35.49160163657336, -42.599177303278914]}}, {"type": "Feature", "properties": {"norad_id": 66562, "name": "STARLINK-35579", "group": "last-30-days", "lat": -42.9408503844225, "lon": -47.80086742283167, "alt_km": 432.7309213286471, "timestamp": "2025-12-25T16:53:13.370002+00:00", "meta": {"OBJECT_NAME": "STARLINK-35579", "OBJECT_ID": "2025-268F", "EPOCH": "2025-12-25T08:00:01.000224", "MEAN_MOTION": 15.46988065, "ECCENTRICITY": 0.00014811, "INCLINATION": 43.0004, "RA_OF_ASC_NODE": 47.3514, "ARG_OF_PERICENTER": 266.5762, "MEAN_ANOMALY": 97.7203, "EPHEMERIS_TYPE": 0, "CLASSIFICATION_TYPE": "U", "NORAD_CAT_ID": 66562, "ELEMENT_SET_NO": 999, "REV_AT_EPOCH": 608, "BSTAR": -0.044675323, "MEAN_MOTION_DOT": -0.02054581, "MEAN_MOTION_DDOT": 0}, "tle": {"line1": "1 66562U 25268F   25359.33334491 -.02054581  00000+0 -44675-1 0  9995", "line2": "2 66562  43.0004  47.3514 0001481 266.5762  97.7203 15.46988065  6084"}}, "geometry": {"type": "Point", "coordinates": [-47.80086742283167, -42.9408503844225]}}, {"type": "Feature", "properties": {"norad_id": 66563, "name": "STARLINK-35437", "group": "last-30-days", "lat": -41.10098745252656, "lon": -24.260446845115542, "alt_km": 428.03479638122917, "timestamp": "2025-12-25T16:53:13.370013+00:00", "meta": {"OBJECT_NAME": "STARLINK-35437", "OBJECT_ID": "2025-268G", "EPOCH": "2025-12-25T08:00:01.000224", "MEAN_MOTION": 15.48653018, "ECCENTRICITY": 0.0001181, "INCLINATION": 43.0005, "RA_OF_ASC_NODE": 47.3149, "ARG_OF_PERICENTER": 270.8661, "MEAN_ANOMALY": 108.7942, "EPHEMERIS_TYPE": 0, "CLASSIFICATION_TYPE": "U", "NORAD_CAT_ID": 66563, "ELEMENT_SET_NO": 999, "REV_AT_EPOCH": 608, "BSTAR": -0.042464401, "MEAN_MOTION_DOT": -0.02068902, "MEAN_MOTION_DDOT": 0}, "tle": {"line1": "1 66563U 25268G   25359.33334491 -.02068902  00000+0 -42464-1 0  9992", "line2": "2 66563  43.0005  47.3149 0001181 270.8661 108.7942 15.48653018  6085"}}, "geometry": {"type": "Point", "coordinates": [-24.260446845115542, -41.10098745252656]}}]}